{"type": "FeatureCollection", "features": [ {"type": "Feature", "properties": {"norad_id": 66987, "name": "STARLINK-36147", "group": "last-30-days", "lat": -18.244003284684425, "lon": 110.08577237481211, "alt_km": 314.21265997711816, "timestamp": "2025-12-18T15:47:09.962415+00:00", "meta": {"OBJECT_NAME": "STARLINK-36147", "OBJECT_ID": "2025-288AE", "EPOCH": "2025-12-18T06:00:02.999808", "MEAN_MOTION": 15.87516993, "ECCENTRICITY": 0.00014978, "INCLINATION": 43.0018, "RA_OF_ASC_NODE": 133.3188, "ARG_OF_PERICENTER": 273.5094, "MEAN_ANOMALY": 247.2103, "EPHEMERIS_TYPE": 0, "CLASSIFICATION_TYPE": "U", "NORAD_CAT_ID": 66987, "ELEMENT_SET_NO": 999, "REV_AT_EPOCH": 271, "BSTAR": -0.0063331704, "MEAN_MOTION_DOT": -0.01533959, "MEAN_MOTION_DDOT": 0}, "tle": {"line1": "1 66987U 25288AE  25352.25003472 -.01533959  00000+0 -63332-2 0  9996", "line2": "2 66987  43.0018 133.3188 0001497 273.5094 247.2103 15.87516993  2715"}}, "geometry": {"type": "Point", "coordinates": [110.08577237481211, -18.244003284684425]}}, {"type": "Feature", "properties": {"norad_id": 66988, "name": "YAOGAN-47", "group": "last-30-days", "lat": 24.5963119055888, "lon": 54.32034028050584, "alt_km": 495.13472478785934, "timestamp": "2025-12-18T15:47:09.962427+00:00", "meta": {"OBJECT_NAME": "YAOGAN-47", "OBJECT_ID": "2025-289A", "EPOCH": "2025-12-15T02:32:19.481856", "MEAN_MOTION": 15.23184629, "ECCENTRICITY": 7.87e-05, "INCLINATION": 97.5271, "RA_OF_ASC_NODE": 54.2297, "ARG_OF_PERICENTER": 67.3408, "MEAN_ANOMALY": 292.7912, "EPHEMERIS_TYPE": 0, "CLASSIFICATION_TYPE": "U", "NORAD_CAT_ID": 66988, "ELEMENT_SET_NO": 999, "REV_AT_EPOCH": 90, "BSTAR": 0.00011849353, "MEAN_MOTION_DOT": 2.729e-05, "MEAN_MOTION_DDOT": 0}, "tle": {"line1": "1 66988U 25289A   25349.10578104  .00002729  00000+0  11849-3 0  9997", "line2": "2 66988  97.5271  54.2297 0000787  67.3408 292.7912 15.23184629   901"}}, "geometry": {"type": "Point", "coordinates": [54.32034028050584, 24.5963119055888]}}, {"type": "Feature", "properties": {"norad_id": 66989, "name": "CZ-4B R/B", "group": "last-30-days", "lat": 67.23292767809879, "lon": 40.070276197103006, "alt_km": 351.31216150221826, "timestamp": "2025-12-18T15:47:09.962439+00:00", "meta": {"OBJECT_NAME": "CZ-4B R/B", "OBJECT_ID": "2025-289B", "EPOCH": "2025-12-18T06:18:50.459328", "MEAN_MOTION": 15.68563917, "ECCENTRICITY": 0.01448012, "INCLINATION": 97.5259, "RA_OF_ASC_NODE": 58.0084, "ARG_OF_PERICENTER": 342.0378, "MEAN_ANOMALY": 17.5793, "EPHEMERIS_TYPE": 0, "CLASSIFICATION_TYPE": "U", "NORAD_CAT_ID": 66989, "ELEMENT_SET_NO": 999, "REV_AT_EPOCH": 143, "BSTAR": 0.00057944105, "MEAN_MOTION_DOT": 0.00119503, "MEAN_MOTION_DDOT": 6.32141e-06}, "tle": {"line1": "1 66989U 25289B   25352.26308402  .00119503  63214-5  57944-3 0  9998", "line2": "2 66989  97.5259  58.0084 0144801 342.0378  17.5793 15.68563917  1438"}}, "geometry": {"type": "Point", "coordinates": [40.070276197103006, 67.23292767809879]}}, {"type": "Feature", "properties": {"norad_id": 66990, "name": "TJS-22", "group": "last-30-days", "lat": 1.4937779406191711, "lon": -56.814581589115726, "alt_km": 35821.33029521306, "timestamp": "2025-12-18T15:47:09.962451+00:00", "meta": {"OBJECT_NAME": "TJS-22", "OBJECT_ID": "2025-290A", "EPOCH": "2025-12-10T07:11:32.845344", "MEAN_MOTION": 2.15443148, "ECCENTRICITY": 0.6664534, "INCLINATION": 20.1261, "RA_OF_ASC_NODE": 301.1464, "ARG_OF_PERICENTER": 180.6877, "MEAN_ANOMALY": 177.6237, "EPHEMERIS_TYPE": 0, "CLASSIFICATION_TYPE": "U", "NORAD_CAT_ID": 66990, "ELEMENT_SET_NO": 999, "REV_AT_EPOCH": 3, "BSTAR": 0.079788243, "MEAN_MOTION_DOT": -3.8e-07, "MEAN_MOTION_DDOT": 0}, "tle": {"line1": "1 66990U 25290A   25344.29968571 -.00000038  00000+0  79788-1 0  9994", "line2": "2 66990  20.1261 301.1464 6664534 180.6877 177.6237  2.15443148    32"}}, "geometry": {"type": "Point", "coordinates": [-56.814581589115726, 1.4937779406191711]}}, {"type": "Feature", "properties": {"norad_id": 66991, "name": "CZ-3B R/B", "group": "last-30-days", "lat": 0.7767276733129695, "lon": -59.266251025812416, "alt_km": 34250.84051763977, "timestamp": "2025-12-18T15:47:09.962478+00:00", "meta": {"OBJECT_NAME": "CZ-3B R/B", "OBJECT_ID": "2025-290B", "EPOCH": "2025-12-15T17:23:33.043200", "MEAN_MOTION": 2.38388611, "ECCENTRICITY": 0.7240884, "INCLINATION": 28.4636, "RA_OF_ASC_NODE": 300.4666, "ARG_OF_PERICENTER": 182.7002, "MEAN_ANOMALY": 168.625, "EPHEMERIS_TYPE": 0, "CLASSIFICATION_TYPE": "U", "NORAD_CAT_ID": 66991, "ELEMENT_SET_NO": 999, "REV_AT_EPOCH": 16, "BSTAR": 0.00075879, "MEAN_MOTION_DOT": 0.00057911, "MEAN_MOTION_DDOT": -2.0514e-07}, "tle": {"line1": "1 66991U 25290B   25349.72468800  .00057911 -20514-6  75879-3 0  9998", "line2": "2 66991  28.4636 300.4666 7240884 182.7002 168.6250  2.38388611   165"}}, "geometry": {"type": "Point", "coordinates": [-59.266251025812416, 0.7767276733129695]}}, {"type": "Feature", "properties": {"norad_id": 66993, "name": "2025-292A", "group": "last-30-days", "lat": -10.116447886962993, "lon": 66.52667170242434, "alt_km": 558.7365808276245, "timestamp": "2025-12-18T15:47:09.962490+00:00", "meta": {"OBJECT_NAME": "2025-292A", "OBJECT_ID": "2025-292A", "EPOCH": "2025-12-18T06:15:15.600672", "MEAN_MOTION": 15.04534968, "ECCENTRICITY": 0.00138255, "INCLINATION": 97.6532, "RA_OF_ASC_NODE": 64.7586, "ARG_OF_PERICENTER": 251.9773, "MEAN_ANOMALY": 107.9947, "EPHEMERIS_TYPE": 0, "CLASSIFICATION_TYPE": "U", "NORAD_CAT_ID": 66993, "ELEMENT_SET_NO": 999, "REV_AT_EPOCH": 122, "BSTAR": 0.00025365056, "MEAN_MOTION_DOT": 3.5e-05, "MEAN_MOTION_DDOT": 0}, "tle": {"line1": "1 66993U 25292A   25352.26059723  .00003500  00000+0  25365-3 0  9995", "line2": "2 66993  97.6532  64.7586 0013825 251.9773 107.9947 15.04534968  1223"}}, "geometry": {"type": "Point", "coordinates": [66.52667170242434, -10.116447886962993]}}, {"type": "Feature", "properties": {"norad_id": 66994, "name": "2025-292B", "group": "last-30-days", "lat": -8.762764009613392, "lon": 66.34121079739731, "alt_km": 558.6039004603681, "timestamp": "2025-12-18T15:47:09.962500+00:00", "meta": {"OBJECT_NAME": "2025-292B", "OBJECT_ID": "2025-292B", "EPOCH": "2025-12-18T06:14:54.694464", "MEAN_MOTION": 15.04574928, "ECCENTRICITY": 0.00135961, "INCLINATION": 97.6541, "RA_OF_ASC_NODE": 64.7598, "ARG_OF_PERICENTER": 252.3152, "MEAN_ANOMALY": 107.659, "EPHEMERIS_TYPE": 0, "CLASSIFICATION_TYPE": "U", "NORAD_CAT_ID": 66994, "ELEMENT_SET_NO": 999, "REV_AT_EPOCH": 122, "BSTAR": 0.00029846685, "MEAN_MOTION_DOT": 4.133e-05, "MEAN_MOTION_DDOT": 0}, "tle": {"line1": "1 66994U 25292B   25352.26035526  .00004133  00000+0  29847-3 0  9993", "line2": "2 66994  97.6541  64.7598 0013596 252.3152 107.6590 15.04574928  1229"}}, "geometry": {"type": "Point", "coordinates": [66.34121079739731, -8.762764009613392]}}, {"type": "Feature", "properties": {"norad_id": 66995, "name": "2025-292C", "group": "last-30-days", "lat": -8.44655709048261, "lon": 66.29678909187865, "alt_km": 558.5163376593428, "timestamp": "2025-12-18T15:47:09.962510+00:00", "meta": {"OBJECT_NAME": "2025-292C", "OBJECT_ID": "2025-292C", "EPOCH": "2025-12-18T06:14:50.183520", "MEAN_MOTION": 15.04600455, "ECCENTRICITY": 0.00138881, "INCLINATION": 97.6532, "RA_OF_ASC_NODE": 64.759, "ARG_OF_PERICENTER": 252.6828, "MEAN_ANOMALY": 107.2879, "EPHEMERIS_TYPE": 0, "CLASSIFICATION_TYPE": "U", "NORAD_CAT_ID": 66995, "ELEMENT_SET_NO": 999, "REV_AT_EPOCH": 122, "BSTAR": 0.0003354972, "MEAN_MOTION_DOT": 4.658e-05, "MEAN_MOTION_DDOT": 0}, "tle": {"line1": "1 66995U 25292C   25352.26030305  .00004658  00000+0  33550-3 0  9992", "line2": "2 66995  97.6532  64.7590 0013888 252.6828 107.2879 15.04600455  1220"}}, "geometry": {"type": "Point", "coordinates": [66.29678909187865, -8.44655709048261]}}, {"type": "Feature", "properties": {"norad_id": 66996, "name": "2025-292D", "group": "last-30-days", "lat": -7.036033796921046, "lon": 66.10352187560724, "alt_km": 557.9607458211522, "timestamp": "2025-12-18T15:47:09.962520+00:00", "meta": {"OBJECT_NAME": "2025-292D", "OBJECT_ID": "2025-292D", "EPOCH": "2025-12-18T06:14:28.167072", "MEAN_MOTION": 15.04633342, "ECCENTRICITY": 0.00130563, "INCLINATION": 97.6525, "RA_OF_ASC_NODE": 64.7588, "ARG_OF_PERICENTER": 255.3674, "MEAN_ANOMALY": 104.6104, "EPHEMERIS_TYPE": 0, "CLASSIFICATION_TYPE": "U", "NORAD_CAT_ID": 66996, "ELEMENT_SET_NO": 999, "REV_AT_EPOCH": 122, "BSTAR": 0.00020187503, "MEAN_MOTION_DOT": 2.779e-05, "MEAN_MOTION_DDOT": 0}, "tle": {"line1": "1 66996U 25292D   25352.26004823  .00002779  00000+0  20188-3 0  9994", "line2": "2 66996  97.6525  64.7588 0013056 255.3674 104.6104 15.04633342  1229"}}, "geometry": {"type": "Point", "coordinates": [66.10352187560724, -7.036033796921046]}}, {"type": "Feature", "properties": {"norad_id": 66997, "name": "2025-292E", "group": "last-30-days", "lat": -4.605811649023265, "lon": 65.77656321454423, "alt_km": 557.6942132007225, "timestamp": "2025-12-18T15:47:09.962530+00:00", "meta": {"OBJECT_NAME": "2025-292E", "OBJECT_ID": "2025-292E", "EPOCH": "2025-12-18T06:13:50.957184", "MEAN_MOTION": 15.04718314, "ECCENTRICITY": 0.00134207, "INCLINATION": 97.6547, "RA_OF_ASC_NODE": 64.7613, "ARG_OF_PERICENTER": 256.2844, "MEAN_ANOMALY": 103.6888, "EPHEMERIS_TYPE": 0, "CLASSIFICATION_TYPE": "U", "NORAD_CAT_ID": 66997, "ELEMENT_SET_NO": 999, "REV_AT_EPOCH": 121, "BSTAR": 0.00025588693, "MEAN_MOTION_DOT": 3.548e-05, "MEAN_MOTION_DDOT": 0}, "tle": {"line1": "1 66997U 25292E   25352.25961756  .00003548  00000+0  25589-3 0  9996", "line2": "2 66997  97.6547  64.7613 0013420 256.2844 103.6888 15.04718314  1217"}}, "geometry": {"type": "Point", "coordinates": [65.77656321454423, -4.605811649023265]}}]}